#dP2023  6 29  6  0  0.00000000      96 __u+U ITR00 EXT  IAC
## 2268 367200.00000000   900.00000000 60124 0.2500000000000
+  116   C06C07C09C10C11C12C13C14C16C19C20C21C22C23C24C25C26
+        C27C28C29C30C32C33C34C35C36C37C39C40C41C42C43C44C45
+        C46E02E03E04E05E07E08E09E10E11E12E13E14E15E18E19E21
+        E24E25E26E27E30E33E34E36G01G02G03G04G05G06G07G08G09
+        G10G11G12G13G14G15G16G17G18G19G20G21G22G23G24G25G26
+        G27G28G29G30G31G32J02J03J04R01R02R03R04R05R07R08R09
+        R11R12R13R14R15R16R17R18R19R20R21R22R24R25  0  0  0
++        10 10  8 11  9 10 10  8  9  9  9  7  9  8  8  8  8
++         8  9  8  8  8  8  8  8  7  8  9  9  9  8  9  8  8
++         9  8  7  8  7  7  7  8  9  8  8  7 10  8  9  8  7
++         8  8  8  8  8  8  9  9  7  8  8  7  9  8  7  7  8
++         8  8  8  7  8  8  8  7  8  8  9  7  8  8  7  9  7
++         8  7  8  8  7  7 10 11  9  9  8  8  8  8  8  8  8
++         9  8  8  7  8  9  8  8  8  9  9  8  9  9  0  0  0
%c M  cc GPS ccc cccc cccc cccc cccc ccccc ccccc ccccc ccccc
%c cc cc ccc ccc cccc cccc cccc cccc ccccc ccccc ccccc ccccc
%f  0.0000000  0.000000000  0.00000000000  0.000000000000000
%f  0.0000000  0.000000000  0.00000000000  0.000000000000000
%i    0    0    0    0      0      0      0      0         0
%i    0    0    0    0      0      0      0      0         0
/* IAC                                ULTRA-RAPID PREDICTION
/* S/V CLOCKS ARE ALIGNED TO GNSS TIME                      
/* G:C1WC2W R:C1PC2P E:C1XC5X C:C2IC6I J:C1CC2S             
/* PCV:IGS20_2247 OL/AL:FES2004  NONE     YN ORB:CoN CLK:CoN
*  2023 06 29  6 15  0.00000000
PC06 -18085.625225  26617.225224 -27345.999676   -169.490146
PC07  -8002.607282  40890.369391  -5727.008089   -244.624768
PC09  -7999.797969  25919.923694 -31983.970532    477.863898
PC10  -2899.507956  41756.295110     32.699700    -99.555763
PC11  -6078.216662  18621.086063  19926.246873    699.193484
PC12 -21746.143009  16708.844646   5158.402847    748.402708
PC13   8032.267291  29237.010272  29552.781095    305.644585
PC14    352.423640  27860.609391    718.194128    483.530822
PC16 -19057.631594  26157.372749 -26948.573288     25.582688
PC19  -6573.562478 -25757.929456   8560.012010   -930.707078
PC20   4821.563319 -26249.582186  -8206.708176    471.304569
PC21 -14281.772232  10775.053549  21422.167497   -928.492329
PC22 -14758.167072 -10445.293262  21262.551954   -419.316526
PC23  24878.966005  12595.645666   1085.261536   -965.097866
PC24  -6806.381763  14877.750329 -22612.208153    115.916702
PC25  14154.005127  19081.127523 -14660.472591    157.246029
PC26 -21646.926992   2951.604384 -17354.810048   -141.483863
PC27  24800.246575 -12408.506097   3057.774240    162.126293
PC28  21775.081275   1075.598319  17421.950319    120.631370
PC29  -5226.701307 -15487.646929 -22627.805154    140.411708
PC30  14196.200344 -20183.117171 -13028.028058     -1.667200
PC32  14209.977101 -10848.566118 -21418.571497   -543.835119
PC33   6667.700688  25738.182807  -8434.650450   -903.463527
PC34 -13058.946571  20278.273711  14034.834852    203.563415
PC35 -21583.455208   -757.441799 -17707.993867    598.692897
PC36 -12966.178654 -19470.327024  15241.549437   -357.037425
PC37  22340.143577  -1579.986763  16679.782342   -788.528589
PC39 -23858.799016  26711.022776 -22381.338221     -3.551931
PC40 -13758.335806  38766.025223  -8563.857674    -27.725802
PC41  14656.468461  11112.792677 -20930.980423   -911.894671
PC42  -5708.547493  25592.569665   9546.237321   -631.165086
PC43   4350.992902  16054.203293  22394.768984     28.375191
PC44 -24404.337392  13166.747959  -3284.275309    152.849657
PC45 -24975.197694 -12326.720184  -1559.851984   -116.224297
PC46   5295.038101 -15487.100496  22604.378469    -65.052792
PE02 -18731.580013  -1349.322839 -22876.601013     46.804442
PE03 -20903.147147  10547.665085  18101.568221    -31.022737
PE04  15933.503285 -24894.019253  -1655.500304   -155.325906
PE05 -13693.209355 -10204.320126  24183.965469     -5.160644
PE07  -1724.009315  24933.237785 -15840.577471    -56.190470
PE08 -16082.608871  24757.527080   2030.432202   -106.428484
PE09   1908.000752 -24975.052619  15792.344841    -66.738532
PE10   6510.906495 -15614.743150 -24304.615100   -544.725081
PE11  -5973.244788 -15791.902116 -24332.448400   2351.941421
PE12  16872.407565 -13143.292316 -20467.933454   -598.330899
PE13   5114.519318  15782.322589  24507.697165    -19.313559
PE14  21195.099716 -19576.102408   6994.566528    267.631412
PE15 -17224.557728  12964.724013  20282.048243    -33.115664
PE18 -21300.254808   7378.368501 -15186.466834    236.872652
PE19  20579.293640  -7932.814004 -19732.273343  -2191.877093
PE21  19553.912634  19298.698049  11017.040270   -537.748903
PE24  -8454.763252 -27068.403316   8445.008412   -181.247151
PE25 -19456.518744 -19568.658763 -10700.370352   -607.514358
PE26  24653.432387   9056.337157  13649.215201    148.024745
PE27   9074.695416  27064.178446  -7838.154849    -86.480596
PE30  -7136.639000  18411.239852 -22060.403597   -294.023752
PE33  29199.101534  -2522.916494  -4130.307223   -442.572912
PE34 -29167.382064   2650.612294   4247.217981    -53.349057
PE36 -24162.613583  -9331.359321 -14339.478661    -78.335351
PG01 -12685.705877 -13544.311906 -19477.947227    175.596755
PG02  -6536.542395 -14207.002890 -20986.159498   -581.242165
PG03 -12882.258903 -23278.304925    908.922655   -252.894194
PG04  -5817.110359 -16318.131649  20111.436786     81.368313
PG05   2239.611122  22498.212840  13667.286548   -132.928429
PG06 -23801.956598   5720.817370  10483.462255    582.105479
PG07 -24632.864136  -7031.721731   8373.007588    139.450141
PG08   3263.893378 -22950.443616 -12673.026800   -129.665435
PG09 -13683.614242  -6862.361879  21630.940224   -124.566293
PG10  15898.464746   -299.036924 -21153.570832    -43.105398
PG11 -11145.575779  13069.441312  20255.158849   -254.678318
PG12   9220.646323  24874.967136  -2256.944175   -394.443409
PG13 -12053.935231  22343.337295  -7606.636260    540.373073
PG14 -17332.344356  -2944.329713 -19936.561174    105.973695
PG15    397.750133  23141.946140 -13262.183398     53.253681
PG16   3513.000431 -20420.923489  16045.556719   -486.494026
PG17 -19457.578619   9541.511752 -15003.285322    719.746802
PG18  25685.892270   4957.634641   5072.771198   -326.088980
PG19 -19878.566624  14684.584509  -9505.793825    336.980997
PG20  -4923.583620  17011.580846  19881.996813    425.440885
PG21  -3870.834833 -14698.298998 -21301.663983    152.682492
PG22  18495.458797 -17913.287919  -5713.884674    505.167884
PG23  18430.931105  12005.746503 -14996.404698     37.879801
PG24   8572.926216  14912.491830 -20687.793697   -240.942761
PG25  16999.711212  18550.327786   8599.328272    452.889154
PG26  11330.477430 -11295.751468  21050.116852    237.897342
PG27  12319.302232 -23151.079862  -2663.915714      7.100070
PG28  24536.985598  -5726.062737   8378.152980     83.595847
PG29  11522.932779   9389.181424  21956.864989   -604.197828
PG30 -26646.660318    -54.374699  -1649.225343   -507.871783
PG31  17006.499682 -11121.109130  17146.015494   -219.096547
PG32  18898.863420 -12229.326278 -13759.270771   -510.504178
PJ02 -20803.766304  22582.302710 -24252.754667     -0.906525
PJ03 -29112.125249  27982.483680  17540.642997      7.809844
PJ04 -27376.464971  28311.460508  20956.575507     96.016166
PR01   6955.959124  15870.749554 -18710.542845     60.369200
PR02  11246.855974  -3125.448161 -22627.879520    -22.647378
PR03   9284.355256 -19837.106231 -12980.718895     80.568548
PR04   2419.169924 -25136.388054   3595.649288    193.054711
PR05  -5782.736258 -16868.464782  18242.132157    114.946672
PR07  -9109.745185  20410.958275  12376.356337     59.047787
PR08  -2222.676101  25156.292938  -3638.075187    -71.452649
PR09 -20055.367958  -6208.809320 -14525.801077    128.395656
PR11   6075.614844  16084.327003 -18821.102287    -91.468496
PR12  19184.940679  16658.138369  -2302.824217     28.584172
PR13  20426.834791   7927.484400  13049.840473    -36.565301
PR14   8945.063025  -7072.039492  22832.696462     24.868500
PR15  -6995.589339 -16663.949061  18029.439610     88.224442
PR16 -19179.946943 -16631.380343   2700.499772     16.130240
PR17  20072.942137 -12388.191292  -9763.305650     -4.736637
PR18   5975.270294 -12474.890853 -21412.709847     88.999890
PR19  -9631.430655  -7303.828306 -22468.121430   -237.997429
PR20 -23703.489936   3873.384413  -8645.657708    -95.614007
PR21 -19313.824763  12482.714134  10998.171095    -18.851855
PR22  -5304.672391  12496.253937  21618.726185     86.687401
PR24  23740.522183  -4872.429842   7996.137183    -14.191002
PR25 -20590.772954  11557.082076   9622.189012     57.793809
EOF
